[{"OBJECT_NAME":"STARLINK-4582","OBJECT_ID":"2022-101AU","EPOCH":"2026-03-09T22:43:37.484832","MEAN_MOTION":15.08867086,"ECCENTRICITY":0.00014862,"INCLINATION":53.2172,"RA_OF_ASC_NODE":52.9933,"ARG_OF_PERICENTER":80.7548,"MEAN_ANOMALY":279.3612,"EPHEMERIS_TYPE":0,"CLASSIFICATION_TYPE":"U","NORAD_CAT_ID":53569,"ELEMENT_SET_NO":999,"REV_AT_EPOCH":19715,"BSTAR":0.00020015285,"MEAN_MOTION_DOT":2.901e-5,"MEAN_MOTION_DDOT":0},{"OBJECT_NAME":"SL-3 DEB","OBJECT_ID":"1988-032C","EPOCH":"2026-03-09T20:54:05.348736","MEAN_MOTION":15.06065434,"ECCENTRICITY":0.00240661,"INCLINATION":97.6252,"RA_OF_ASC_NODE":41.5186,"ARG_OF_PERICENTER":162.4496,"MEAN_ANOMALY":255.7854,"EPHEMERIS_TYPE":0,"CLASSIFICATION_TYPE":"U","NORAD_CAT_ID":24893,"ELEMENT_SET_NO":999,"REV_AT_EPOCH":81391,"BSTAR":0.00022425917,"MEAN_MOTION_DOT":3.232e-5,"MEAN_MOTION_DDOT":0}]
